NORAD_CAT_ID,OBJECT_NAME,OBJECT_TYPE,EPOCH,MEAN_MOTION,ECCENTRICITY,INCLINATION,RA_OF_ASC_NODE,ARG_OF_PERICENTER,MEAN_ANOMALY,BSTAR,MEAN_MOTION_DOT,MEAN_MOTION_DDOT,TLE_LINE0,TLE_LINE1,TLE_LINE2,SEMIMAJOR_AXIS,PERIOD,APOGEE,PERIGEE,DECAYED
55946.0,STARLINK-5857,PAYLOAD,2024-06-09 04:58:00,14.98110386,0.0006075,69.999,94.2177,290.2494,69.8012,0.0038355,0.00045722,0.0,0 STARLINK-5857,1 55946U 23037AJ  24161.20694544  .00045722  00000-0  38355-2 0  9998,2 55946  69.9990  94.2177 0006075 290.2494  69.8012 14.98110386 68686,6950.872,96.121,576.96,568.514,0.0
55946.0,STARLINK-5857,PAYLOAD,2024-06-09 20:59:16,14.98315899,0.0003391,69.9989,92.534,262.2835,97.7939,0.00010347,1.141e-05,0.0,0 STARLINK-5857,1 55946U 23037AJ  24161.87449125  .00001141  00000-0  10347-3 0  9993,2 55946  69.9989  92.5340 0003391 262.2835  97.7939 14.98315899 68788,6950.236,96.108,574.458,569.745,0.0
55946.0,STARLINK-5857,PAYLOAD,2024-06-10 04:59:55,14.98334283,0.000294,69.9998,91.692,269.3114,90.7708,-2.0278e-06,-1.17e-06,0.0,0 STARLINK-5857,1 55946U 23037AJ  24162.20827887 -.00000117  00000-0 -20278-5 0  9996,2 55946  69.9998  91.6920 0002940 269.3114  90.7708 14.98334283 68830,6950.18,96.107,574.088,570.001,0.0
55946.0,STARLINK-5857,PAYLOAD,2024-06-10 13:00:35,14.98334907,0.0003002,69.9998,90.8497,271.0246,89.0569,-6.0212e-05,-8.11e-06,0.0,0 STARLINK-5857,1 55946U 23037AJ  24162.54207917 -.00000811  00000-0 -60212-4 0  9991,2 55946  69.9998  90.8497 0003002 271.0246  89.0569 14.98334907 68543,6950.178,96.107,574.129,569.956,0.0
55946.0,STARLINK-5857,PAYLOAD,2024-06-10 21:01:16,14.98319569,0.0002921,69.9992,90.0076,269.6334,90.4491,0.00011205,1.244e-05,0.0,0 STARLINK-5857,1 55946U 23037AJ  24162.87588411  .00001244  00000-0  11205-3 0  9994,2 55946  69.9992  90.0076 0002921 269.6334  90.4491 14.98319569 68932,6950.225,96.108,574.12,570.06,0.0
55946.0,STARLINK-5857,PAYLOAD,2024-06-10 22:37:24,14.98320969,0.0003012,69.9996,89.8397,269.2289,90.8525,0.00013059,1.465e-05,0.0,0 STARLINK-5857,1 55946U 23037AJ  24162.94264389  .00001465  00000-0  13059-3 0  9991,2 55946  69.9996  89.8397 0003012 269.2289  90.8525 14.98320969 68607,6950.221,96.108,574.179,569.992,0.0
55946.0,STARLINK-5857,PAYLOAD,2024-06-11 05:01:56,14.98328108,0.0003188,69.9998,89.1677,270.3222,89.7572,0.00017779,2.029e-05,0.0,0 STARLINK-5857,1 55946U 23037AJ  24163.20967849  .00002029  00000-0  17779-3 0  9992,2 55946  69.9998  89.1677 0003188 270.3222  89.7572 14.98328108 68980,6950.199,96.107,574.279,569.848,0.0
55946.0,STARLINK-5857,PAYLOAD,2024-06-11 13:02:36,14.98349304,0.0003196,69.9998,88.326,275.334,84.7454,-0.00021388,-2.645e-05,0.0,0 STARLINK-5857,1 55946U 23037AJ  24163.54347361 -.00002645  00000-0 -21388-3 0  9997,2 55946  69.9998  88.3260 0003196 275.3340  84.7454 14.98349304 68697,6950.133,96.106,574.219,569.777,0.0
55946.0,STARLINK-5857,PAYLOAD,2024-06-12 05:03:56,14.98338901,0.000293,69.9999,86.6432,268.5258,91.5565,5.4074e-05,5.52e-06,0.0,0 STARLINK-5857,1 55946U 23037AJ  24164.21107261  .00000552  00000-0  54074-4 0  9997,2 55946  69.9999  86.6432 0002930 268.5258  91.5565 14.98338901 69137,6950.165,96.106,574.067,569.994,0.0
55946.0,STARLINK-5857,PAYLOAD,2024-06-12 21:05:18,14.98325461,0.0002775,70.0003,84.9598,269.8016,90.2825,-7.7053e-05,-1.012e-05,0.0,0 STARLINK-5857,1 55946U 23037AJ  24164.87868437 -.00001012  00000-0 -77053-4 0  9994,2 55946  70.0003  84.9598 0002775 269.8016  90.2825 14.98325461 69236,6950.207,96.107,574.001,570.143,0.0
55946.0,STARLINK-5857,PAYLOAD,2024-06-12 22:41:26,14.98324135,0.0002807,70.0002,84.7915,269.7319,90.3519,-8.6271e-05,-1.122e-05,0.0,0 STARLINK-5857,1 55946U 23037AJ  24164.94544554 -.00001122  00000-0 -86271-4 0  9997,2 55946  70.0002  84.7915 0002807 269.7319  90.3519 14.98324135 68908,6950.211,96.107,574.027,570.125,0.0
55946.0,STARLINK-5857,PAYLOAD,2024-06-13 05:05:58,14.98332773,0.0002925,69.9996,84.1184,269.1147,90.9677,-5.2786e-06,-1.56e-06,0.0,0 STARLINK-5857,1 55946U 23037AJ  24165.21247781 -.00000156  00000-0 -52786-5 0  9991,2 55946  69.9996  84.1184 0002925 269.1147  90.9677 14.98332773 69283,6950.184,96.107,574.082,570.016,0.0
55946.0,STARLINK-5857,PAYLOAD,2024-06-13 11:30:30,14.98332734,0.0002927,69.9996,83.4451,269.2319,90.8505,-2.2406e-05,-3.6e-06,0.0,0 STARLINK-5857,1 55946U 23037AJ  24165.47951767 -.00000360  00000-0 -22406-4 0  9997,2 55946  69.9996  83.4451 0002927 269.2319  90.8505 14.98332734 68988,6950.184,96.107,574.084,570.015,0.0
55946.0,STARLINK-5857,PAYLOAD,2024-06-13 22:43:26,14.98336746,0.0002941,69.9994,82.2668,269.6139,90.4683,4.4348e-05,4.36e-06,0.0,0 STARLINK-5857,1 55946U 23037AJ  24165.94683169  .00000436  00000-0  44348-4 0  9998,2 55946  69.9994  82.2668 0002941 269.6139  90.4683 14.98336746 69052,6950.172,96.107,574.081,569.993,0.0
55946.0,STARLINK-5857,PAYLOAD,2024-06-14 11:32:30,14.98340156,0.0003061,69.9995,80.9207,269.2727,90.8081,-1.9973e-05,-3.31e-06,0.0,0 STARLINK-5857,1 55946U 23037AJ  24166.48090777 -.00000331  00000-0 -19973-4 0  9997,2 55946  69.9995  80.9207 0003061 269.2727  90.8081 14.98340156 69135,6950.161,96.106,574.154,569.899,0.0
55946.0,STARLINK-5857,PAYLOAD,2024-06-14 22:45:27,14.98323105,0.0002899,70.0004,79.743,272.6886,87.3941,-2.2239e-06,-1.2e-06,0.0,0 STARLINK-5857,1 55946U 23037AJ  24166.94823964 -.00000120  00000-0 -22239-5 0  9996,2 55946  70.0004  79.7430 0002899 272.6886  87.3941 14.98323105 69204,6950.214,96.107,574.094,570.064,0.0
55946.0,STARLINK-5857,PAYLOAD,2024-06-15 11:34:32,14.98328089,0.0003089,69.9999,78.3958,269.6759,90.4047,-3.6331e-05,-5.26e-06,0.0,0 STARLINK-5857,1 55946U 23037AJ  24167.48231710 -.00000526  00000-0 -36331-4 0  9995,2 55946  69.9999  78.3958 0003089 269.6759  90.4047 14.98328089 69287,6950.199,96.107,574.211,569.917,0.0
55946.0,STARLINK-5857,PAYLOAD,2024-06-15 21:11:20,14.98329966,0.0002938,70.0,77.3857,269.8652,90.217,-9.1988e-05,-1.19e-05,0.0,0 STARLINK-5857,1 55946U 23037AJ  24167.88287791 -.00001190  00000-0 -91988-4 0  9996,2 55946  70.0000  77.3857 0002938 269.8652  90.2170 14.98329966 69680,6950.193,96.107,574.1,570.016,0.0
55946.0,STARLINK-5857,PAYLOAD,2024-06-16 11:36:33,14.98329258,0.0003386,69.999,75.8704,264.6218,95.4555,-0.00016837,-2.101e-05,0.0,0 STARLINK-5857,1 55946U 23037AJ  24168.48371933 -.00002101  00000-0 -16837-3 0  9997,2 55946  69.9990  75.8704 0003386 264.6218  95.4555 14.98329258 69439,6950.195,96.107,574.414,569.707,0.0
55946.0,STARLINK-5857,PAYLOAD,2024-06-16 22:49:29,14.98324677,0.0003254,69.9997,74.6921,268.2665,91.8121,6.7673e-05,7.14e-06,0.0,0 STARLINK-5857,1 55946U 23037AJ  24168.95103877  .00000714  00000-0  67673-4 0  9990,2 55946  69.9997  74.6921 0003254 268.2665  91.8121 14.98324677 69501,6950.209,96.107,574.336,569.813,0.0
55946.0,STARLINK-5857,PAYLOAD,2024-06-17 22:51:30,14.98329963,0.000315,69.9998,72.1672,269.5904,90.4894,5.6414e-05,5.8e-06,0.0,0 STARLINK-5857,1 55946U 23037AJ  24169.95243576  .00000580  00000-0  56414-4 0  9994,2 55946  69.9998  72.1672 0003150 269.5904  90.4894 14.98329963 69654,6950.193,96.107,574.247,569.869,0.0
55946.0,STARLINK-5857,PAYLOAD,2024-06-18 03:39:53,14.98340049,0.0003151,69.9995,71.6622,268.2954,91.7844,7.0578e-05,7.49e-06,0.0,0 STARLINK-5857,1 55946U 23037AJ  24170.15270830  .00000749  00000-0  70578-4 0  9995,2 55946  69.9995  71.6622 0003151 268.2954  91.7844 14.98340049 70022,6950.162,96.106,574.217,569.837,0.0
55946.0,STARLINK-5857,PAYLOAD,2024-06-18 19:41:15,14.9833347,0.0002979,70.0001,69.979,269.0494,91.0324,-4.3066e-05,-6.07e-06,0.0,0 STARLINK-5857,1 55946U 23037AJ  24170.82031543 -.00000607  00000-0 -43066-4 0  9992,2 55946  70.0001  69.9790 0002979 269.0494  91.0324 14.98333470 70121,6950.182,96.107,574.118,569.977,0.0
55946.0,STARLINK-5857,PAYLOAD,2024-06-18 21:17:23,14.98332101,0.0002985,70.0001,69.8107,268.9476,91.1341,-2.0554e-05,-3.38e-06,0.0,0 STARLINK-5857,1 55946U 23037AJ  24170.88707557 -.00000338  00000-0 -20554-4 0  9991,2 55946  70.0001  69.8107 0002985 268.9476  91.1341 14.98332101 69798,6950.186,96.107,574.126,569.977,0.0
55946.0,STARLINK-5857,PAYLOAD,2024-06-19 10:06:26,14.98367005,0.0002984,70.0004,68.4642,276.2458,83.8361,-0.00063464,-7.664e-05,0.0,0 STARLINK-5857,1 55946U 23037AJ  24171.42114495 -.00007664  00000-0 -63464-3 0  9990,2 55946  70.0004  68.4642 0002984 276.2458  83.8361 14.98367005 70211,6950.078,96.105,574.017,569.87,0.0
55946.0,STARLINK-5857,PAYLOAD,2024-06-19 21:19:24,14.98330375,0.000283,70.0002,67.2861,269.7672,90.3163,-7.4181e-05,-9.78e-06,0.0,0 STARLINK-5857,1 55946U 23037AJ  24171.88847617 -.00000978  00000-0 -74181-4 0  9999,2 55946  70.0002  67.2861 0002830 269.7672  90.3163 14.98330375 70284,6950.192,96.107,574.024,570.09,0.0
55946.0,STARLINK-5857,PAYLOAD,2024-06-19 22:55:32,14.98330369,0.0002828,70.0002,67.1178,269.7924,90.2911,-7.3002e-05,-9.64e-06,0.0,0 STARLINK-5857,1 55946U 23037AJ  24171.95523609 -.00000964  00000-0 -73002-4 0  9995,2 55946  70.0002  67.1178 0002828 269.7924  90.2911 14.98330369 69956,6950.192,96.107,574.022,570.091,0.0
55946.0,STARLINK-5857,PAYLOAD,2024-06-20 10:08:28,14.98330233,0.0002786,70.0004,65.94,267.7889,92.2951,-5.5943e-05,-7.6e-06,0.0,0 STARLINK-5857,1 55946U 23037AJ  24172.42255521 -.00000760  00000-0 -55943-4 0  9991,2 55946  70.0004  65.9400 0002786 267.7889  92.2951 14.98330233 70029,6950.192,96.107,573.993,570.121,0.0
55946.0,STARLINK-5857,PAYLOAD,2024-06-20 21:21:25,14.98328535,0.0002805,70.0004,64.7614,268.4212,91.6625,-4.7278e-05,-6.57e-06,0.0,0 STARLINK-5857,1 55946U 23037AJ  24172.88987622 -.00000657  00000-0 -47278-4 0  9992,2 55946  70.0004  64.7614 0002805 268.4212  91.6625 14.98328535 70093,6950.197,96.107,574.012,570.113,0.0
55946.0,STARLINK-5857,PAYLOAD,2024-06-20 22:57:33,14.98328052,0.0002815,70.0004,64.5931,268.4144,91.6692,-5.1828e-05,-7.11e-06,0.0,0 STARLINK-5857,1 55946U 23037AJ  24172.95663671 -.00000711  00000-0 -51828-4 0  9992,2 55946  70.0004  64.5931 0002815 268.4144  91.6692 14.98328052 70445,6950.199,96.107,574.02,570.107,0.0
